Venue Name,Latitude,Longitude,Venue address,Opening hours,Library facilities and services,Phone number,Parking,Meeting Room Information
Annerley Library,-27.50948,153.033338,"450 Ipswich Rd, Annerley 4103","Closed on public holidays
Monday, Tuesday and Friday: 10am - 5pm
Saturday: 9am - 1pm
Wednesday, Thursday and Sunday: closed
","Books, magazines, newspapers, eBooks and digital resources
CDs, CD-ROMs, DVDs
Information and Reference Services
Internet Access and W-Fi Access
Photocopier
Community and Council Information
Wheelchair Accessible
",Council - 07 3403 8888,"On Street, off Street and shopping centre",
Ashgrove Library,-27.444473,152.987317,"87 Amarina Ave, Ashgrove 4060","Closed on public holidays
Monday, Wednesday and Friday: 10am - 6pm
Tuesday and Thursday: 10am - 8pm
Saturday: 9am - 2pm
Sunday: Closed
","Books, magazines, newspapers, eBooks and digital resources
CDs, CD-ROMs, DVDs
Information and Reference Services
Internet Access and W-Fi Access
Community Meeting Room available 9am-9pm 7 days (by prior arrangement
Photocopier
Community and Council Information
Wheelchair Accessible
",Council - 07 3403 8888,On Street  ,"The Ashgrove Library meeting room is available for use between the hours of 9am and 9pm.
Meeting Room 1  - 50 people
Meeting Room 2  - 10 people
(The rooms can also be combined into one room to fit 60 people) 
Facilities:
Free Wi-Fi , Lectern , Electronic Whiteboard, 
Data Projector , Public Access PC connected to Data Projector , Laptop Connectivity to Data Projecter (laptop not provided) , Macbook connectivity (mini display port to vga adaptor cable) 
iPad connectivity (iPad to vga adaptor cable) , TV/DVD player, CD player , Wireless Microphones 
Wheelchair Accessibility , Wheelchair Accessible toilets , Kitchenette with chilled or boiling water on tap, sink, fridge and dishwasher (glasses, cups, saucers and teaspoons provided) , Tables (lockable wheels) , Chairs 





"
Banyo Library,-27.374559,153.078214,"284 St Vincents Rd, Banyo 4014","Closed on public holidays
Monday and Sunday: closed
Tuesday: 12 noon - 6pm
Wednesday: 10am - 5pm
Thursday: 10am - 6pm
Friday: 12 noon - 5pm
Saturday: 9am - 12 noon
","Books, magazines, newspapers, eBooks and digital resources
CDs, CD-ROMs, DVDs
Information and Reference Services
Internet Access and W-Fi Access
Community Meeting Room available
Photocopier
Community and Council Information
Wheelchair Accessible
",Council - 07 3403 8888,On street and off street,"The Banyo Library meeting rooms are available for use 24 hours a day.
Meeting Room 1 - 40 people
Meeting Room 2 - 40 people
Free Wi-Fi, Lectern, Electronic Whiteboard
Data Projector, Public Access PC connected to Data Projector, Laptop Connectivity to Data Projector (laptop not provided), Macbook connectivity (mini display port to vga adaptor cable)
iPad connectivity (iPad to vga adaptor cable), TV/DVD player, CD player, Wireless Microphones
Wheelchair Accessibility, Wheelchair Accessible toilets, Kitchenette with chilled or boiling water on tap, sink, fridge and dishwasher (glasses, cups, saucers and teaspoons provided)
Tables (lockable wheels), Chairs
"
Bracken Ridge Library,-27.31869,153.038075,"Corner Bracken and Barrett Streets, Bracken Ridge","Closed on public holidays
Monday and Sunday: closed
Tuesday and Wednesday: 10am - 8pm
Thursday: 10am - 6pm
Friday: 10am - 5pm
Saturday: 9am - 3pm
","Books, magazines, newspapers, eBooks and digital resources
CDs, CD-ROMs, DVDs
Information and Reference Services
Internet Access and W-Fi Access
Meeting room available during opening hours
Photocopier
Community and Council Information
Wheelchair Accessible
",Council - 07 3403 8888,On street and off street,"Bracken Ridge Library has a meeting room space which can comfortably seat up to 20 people. The library is situated next to a lovely tree lined park with a children's playground, and conveniently located near public transport.
The Bracken Ridge Library meeting room is available for use at the following times.

Tuesday - 10am-7.45pm
Wednesday - 10am-7.45pm
Thursday - 10am-5.45pm
Friday - 10am-4.45pm
Saturday -  
9am-2.45pm
Free Wi-Fi, Lectern
Electronic Whiteboard, Data Projector
Public Access PC connected to Data Projector
Laptop Connectivity to Data Projector (laptop not provided), Macbook connectivity (mini display port to vga adaptor cable), iPad connectivity (iPad to vga adaptor cable), TV/DVD player, CD player
Wireless Microphones, Wheelchair Accessibility
Wheelchair Accessible toilets, Kitchenette with chilled or boiling water on tap, sink, fridge and dishwasher (glasses, cups, saucers and teaspoons provided), Tables (lockable wheels)
Chairs
"
Brisbane Square Library,-27.470772,153.022319,"266 George St, Brisbane","Closed on public holidays
Monday to Thursday: 9am - 6pm
Friday: 9am - 7pm
Saturday and Sunday: 10am - 3pm
","Books, magazines, newspapers, eBooks and digital resources,Information and Reference Services
Internet lounge - 38 computers with internet access,Wireless access to the internet is available for customers with laptops or other devices,Access points have been installed on each level of the Brisbane Square Library
Checkin - returned loans will be checked in and sorted by the most advanced booksorter technology in Australia
News lounge - read local and international newspapers and watch live news broadcasts and stock report feeds on-screen
Community Languages and Literacy Collection
Community meeting rooms and study rooms - available for booking by customers
Children's lounge - promote reading with children's story time and events
Learning lounge - provide computer training for up to 18 customers in a formal or self-paced learning environment
City Zoo - tune into the latest sporting event and other popular information. City Zoo also contains the young adult collection and X-Boxes. Bring your lunch or coffee, and check out the latest sports news on the big screen
Sound and vision lounge -which provides access to DVD/video viewing pods, listening posts and an expanded audio-visual collection
Magazine lounge - with a wide range of materials and comfortable lounge style seating with views across Reddacliff Place to the Treasury Building and Queen Street Mall
Literature lounge - a venue for good reading and author events with views across Reddacliff Square and the Brisbane River
Brisbane history gallery - learn about Brisbane's past and present
Large print collection, reference collection and non-fiction, adult fiction and biographies - with comfortable seating for quiet reading
Photocopier
Wheelchair Accessible
Customer Service Counter - make Council payments such as rates, parking infringements and library fees
Central Business Centre incorporating mapping services and Town Planners - to get information and applications for development, permits and licensing; customised Brisbane maps and lost property
Express self-service kiosks - pay Council bills by credit card or access information on rates, waste and animals
Development lounge - a meeting space for Development Assessment staff and clients
",Council - 07 3403 8888,No dedicated parking,"
Brisbane Square Library hosts three meeting room spaces and 6 study spaces, in a modern and architecturally designed space. The library is centrally located, and close to all forms of public amenities.
The Brisbane Square Library meeting rooms are available for use at the following times.
 Community Meeting Room
Monday-Thursday 9am-5.45pm; Friday 9am-6.45pm; Saturday-Sunday 10am-2.45pm
Tiered Theatrette
Monday-Sunday 9am-9pm
The End Room
Monday-Thursday 9am-5.45pm; Friday 9am-6.45pm; Saturday-Sunday 10am-2.45pm
 Study Room (6 Rooms) Monday-Thursday 9am-5.45pm; Friday 9am-6.45pm; Saturday-Sunday 10am-2.45pm
*Study Rooms can be booked for a maximum of 2 hours per day
There are four study rooms. Capacity: 4. Powerpoints available. Bookings required - a 2 hour sessions can be booked.
Capacity: Community Meeting Room 20 people, Tiered Theatrette  50 people, End Room  150 people, 
Study Rooms Level 1 : 4 people, Study Rooms Level 2: 3 people
Free Wi-Fi, Lectern, Electronic Whiteboard, Data Projector, Public Access PC connected to Data Projector
Laptop Connectivity to Data Projecter (laptop not provided), Macbook connectivity (mini display port to vga adaptor cable)
iPad connectivity (iPad to vga adaptor cable),TV/DVD player, CD player, Wireless Microphones, Wheelchair Accessibility
Wheelchair Accessible toilets, Kitchenette with chilled or boiling water on tap, sink, fridge and dishwasher (glasses, cups, saucers and teaspoons provided), Tables (lockable wheels) Not Tiered Theatrette, Chairs Not Tiered Theatrette"
Bulimba Library,-27.45209,153.06281,"Cnr Riding Rd & Oxford St, Bulimba 4171","Closed on public holidays
Monday and Sunday: Closed
Tuesday, Thursday and Friday: 9am - 5pm
Wednesday: 1pm - 8pm
Saturday: 9am - 2pm
","Books, magazines, newspapers, eBooks and digital resources
CDs, CD-ROMs, DVDs
Information and Reference Services
Internet Access and W-Fi Access
Photocopier
Community and Council Information
Wheelchair Accessible
Community Meeting Room available",Council - 07 3403 8888,"The Bulimba Library car park is locked at : 5:00pm Tues, Thurs, Fri 8:00pm Wed 2:00pm Sat. 
Vehicles not removed by this time will be secured until the library's next opening day. 
Remote controls for the garage door will be offered to meeting room users to be signed out and in with keys.","The Bulimba Library meeting rooms are available for use 24 hrs a day, 7 days a week.
Meeting Room 1 : 35 people; Meeting Room 2: 12 people
Free Wi-Fi
Lectern
Electronic Whiteboard
Data Projector
Public Access PC connected to Data Projector
Laptop Connectivity to Data Projector (laptop not provided)
Macbook connectivity (mini display port to vga adaptor cable)
iPad connectivity (iPad to vga adaptor cable)
TV/DVD player, CD player
Wireless Microphones
Wheelchair Accessibility
Wheelchair Accessible toilets
Kitchenette with chilled or boiling water on tap, sink, fridge and dishwasher (glasses, cups, saucers and teaspoons provided)
Tables (lockable wheels)
Chairs
"
Carina Library,-27.49369,153.089761,"Cnr Mayfield Rd & Nyrang St, Carina 4152","Closed on public holidays
Monday, Tuesday and Friday: 10am - 6pm
Saturday: 9am- 12 noon
Wednesday, Thursday and Sunday: Closed
","Books, magazines, newspapers, eBooks and digital resources
CDs, CD-ROMs, DVDs
Information and Reference Services
Internet Access and W-Fi Access
Photocopier
Community and Council Information
Wheelchair Accessible",Council - 07 3403 8888,On street and off street,
Carindale Library,-27.501358,153.101917,"Westfield Carindale, 1151 Creek Road (near Millenium Boulevard), Carindale","Closed on public holidays
Monday, Tuesday, Wednesday and Friday: 9am - 5.30pm
Thursday: 9am - 8pm
Saturday: 9am - 3pm
Sunday: 10am - 4pm
","Books, magazines, newspapers, eBooks and digital resources
CDs, CD-ROMs, DVDs
Information and Reference Services
Greek and Chinese Language Collections
Internet Access and W-Fi Access
Community Meeting Room available
Photocopier
Community and Council Information
Wheelchair Accessible, Wheelchair charging station
Chinese and Greek collections",Council - 07 3403 8888,Shopping Centre,"The Carindale Library meeting rooms are available for use 24 hours per day.
Meeting Room 1: 30 people; Meeting Room 2: 30 people 
(The rooms can also be combined into one room to fit 60 people)
Free Wi-Fi
Lectern
Electronic Whiteboard
Data Projector
Public Access PC connected to Data Projector
Laptop Connectivity to Data Projecter (laptop not provided)
Macbook connectivity (mini display port to vga adaptor cable)
iPad connectivity (iPad to vga adaptor cable)
TV/DVD player, CD player
Wireless Microphones
Wheelchair Accessibility
Wheelchair Accessible toilets
Kitchenette with chilled or boiling water on tap, sink, fridge and dishwasher (glasses, cups, saucers and teaspoons provided)
Tables (lockable wheels)
Chairs"
Chermside Library,-27.386329,153.035194,"Chermside Library, 375 Hamilton Rd, Chermside 4032","Closed on public holidays
Monday, Wednesday and Friday: 9am - 6pm
Tuesday and Thursday: 9am - 8pm
Saturday: 9am - 3pm
Sunday: 10am - 4pm
","Books, magazines, newspapers, eBooks and digital resources
CDs, CD-ROMs, DVDs
Information and Reference Services
Internet Access and W-Fi Access
Photocopier
Community and Council Information
Wheelchair Accessible
Community Meeting Room available
Italian and Chinese collections",Council - 07 3403 8888,Off street parking and shopping centre parking,"The Chermside Library meeting rooms are available for use 24 hours per day.
Meeting Room 1: 40 people: Meeting Room 2: 80 people; Meeting Room 3: 40 people  
(Two of the rooms can also be combined into one room to fit 120 people)
Free Wi-Fi
Lectern
Electronic Whiteboard
Data Projector
Public Access PC connected to Data Projector
Laptop Connectivity to Data Projecter (laptop not provided)
Macbook connectivity (mini display port to vga adaptor cable)
iPad connectivity (iPad to vga adaptor cable)
TV/DVD player, CD player
Wireless Microphones
Wheelchair Accessibility
Wheelchair Accessible toilets
Kitchenette with chilled or boiling water on tap, sink, fridge and dishwasher (glasses, cups, saucers and teaspoons provided)
Tables (lockable wheels)
Chairs"
Coopers Plains Library,-27.564974,153.03955,"107 Orange Grove Rd, Coopers Plains 4108","Closed on public holidays
 Monday and Sunday: Closed
 Tuesday, Thursday and Friday: 10am - 5pm
 Wednesday: 10am - 8pm
 Saturday: 9am - 1pm","Books, magazines, newspapers, eBooks and digital resources
CDs, CD-ROMs, DVDs
Information and Reference Services
Internet Access and W-Fi Access
Photocopier
Community and Council Information
Wheelchair Accessible
Community Meeting Room available",Council - 07 3403 8888,Off Street and On Street,"The Coopers Plains Library meeting room is available for use from 7am-10pm each day.
Meeting Room 1: 50 people
Free Wi-Fi
Lectern
Electronic Whiteboard
Data Projector
Public Access PC connected to Data Projector
Laptop Connectivity to Data Projecter (laptop not provided)
Macbook connectivity (mini display port to vga adaptor cable)
iPad connectivity (iPad to vga adaptor cable)
TV/DVD player, CD player
Wireless Microphones
Wheelchair Accessibility
Wheelchair Accessible toilets
Kitchenette with chilled or boiling water on tap, sink, fridge and dishwasher (glasses, cups, saucers and teaspoons provided)
Tables (lockable wheels)
Chairs"
Corinda Library,-27.538956,152.981515,"641 Oxley Rd, Corinda, 4075","Closed on public holidays
Monday and Sunday: Closed
Tuesday to Friday: 10am - 5pm
Saturday: 9am - 12 noon
","Books, magazines, newspapers, eBooks and digital resources
CDs, CD-ROMs, DVDs
Information and Reference Services
Internet Access and W-Fi Access
Photocopier
Community and Council Information
Wheelchair Accessible",Council - 07 3403 8888,Parking behind library,
Everton Park Library,-27.405409,152.990407,"561 South Pine Road, Everton Park 4053","Closed on public holidays
Monday and Sunday: Closed
Tuesday: 10am - 6pm
Wednesday: 10am - 5pm
Thursday: 12 noon - 8pm
Friday: 12 noon - 5pm
Saturday: 9am - 1pm
","Books, magazines, newspapers, eBooks and digital resources
CDs, CD-ROMs, DVDs
Information and Reference Services
Internet Access and W-Fi Access
Photocopier
Community and Council Information
Wheelchair Accessible",Council - 07 3403 8888,Parking behind library,
Fairfield Library,-27.509299,153.026449,"Fairfield Gardens Shopping Centre, Fairfield Rd, Fairfield Q 4103","Closed on public holidays
Monday and Sunday: closed
Tuesday and Wednesday: 10am - 6pm
Thursday: 9am - 7pm
Friday: 10am - 5pm
Saturday: 9am - 2pm
","Books, magazines, newspapers, eBooks and digital resources
CDs, CD-ROMs, DVDs
Information and Reference Services
Internet Access and W-Fi Access
Photocopier
Community and Council Information
Wheelchair Accessible",Council - 07 3403 8888,Shopping Centre,
Garden City Library,-27.562594,153.081563,"Garden City Shopping Centre, Cnr Logan & Kessels Rd, Upper Mt Gravatt Q 4122","Closed on public holidays
Monday, Tuesday, Wednesday and Friday: 9am - 5.30pm
Thursday: 9am - 8pm
Saturday: 9am - 3pm
Sunday: 10am - 4pm
","Books, magazines, newspapers, eBooks and digital resources
CDs, CD-ROMs, DVDs
Information and Reference Services
Internet Access and W-Fi Access
Photocopier
Community and Council Information
Wheelchair Accessible
Community Meeting Room available
Arabic, Chinese, Hindi, Korean, Punjabi and Sinhalese collections",Council - 07 3403 8888,Shopping Centre,"The Garden City Library meeting room is available for use 24 hours a day.
Meeting Room 1: 50 people
Free Wi-Fi
Lectern
Electronic Whiteboard
Data Projector
Public Access PC connected to Data Projector
Laptop Connectivity to Data Projecter (laptop not provided)
Macbook connectivity (mini display port to vga adaptor cable)
iPad connectivity (iPad to vga adaptor cable)
TV/DVD player, CD player
Wireless Microphones
Wheelchair Accessibility
Wheelchair Accessible toilets
Kitchenette with chilled or boiling water on tap, sink, fridge and dishwasher (glasses, cups, saucers and teaspoons provided)
10 Tables (lockable wheels)
70 Chairs"
Grange Library,-27.425266,153.017813,"79 Evelyn St, Grange 4051","Closed on public holidays
 Monday and Sunday: Closed
 Tuesday and Thursday: 10am - 6pm
 Wednesday: 12 noon - 8pm
 Friday: 10am - 5pm
 Saturday: 9am - 1pm","Books, magazines, newspapers, eBooks and digital resources
CDs, CD-ROMs, DVDs
Information and Reference Services
Internet Access and W-Fi Access
Photocopier
Community and Council Information
Wheelchair Accessible
Community Meeting Room availableAfter hours chute,Disabled toilet,Meeting rooms,Photocopier,Toilet,Wheelchair accessible,Wi-fi,Word processing",Council - 07 3403 8888,Off Street,"The Grange Library meeting room is available for use from 7am-10pm each day
Meeting Room 1: 50 people
Free Wi-Fi
Lectern
Electronic Whiteboard
Data Projector
Public Access PC connected to Data Projector
Laptop Connectivity to Data Projecter (laptop not provided)
Macbook connectivity (mini display port to vga adaptor cable)
iPad connectivity (iPad to vga adaptor cable)
TV/DVD player, CD player
Wireless Microphones
Wheelchair Accessibility
Wheelchair Accessible toilets
Kitchenette with chilled or boiling water on tap, sink, fridge and dishwasher (glasses, cups, saucers and teaspoons provided)
Tables (lockable wheels)
Chairs"
Hamilton Library,-27.437927,153.06428,"Cnr Racecourse Rd & Rossiter Pde, Ascot 4007","Closed on public holidays
Monday and Sunday: Closed
Tuesday, Thursday and Friday: 10am - 5pm
Wednesday: 1pm - 6pm
Saturday: 9am - 1pm
","Books, magazines, newspapers, eBooks and digital resources
CDs, CD-ROMs, DVDs
Information and Reference Services
Internet Access and W-Fi Access
Photocopier
Community and Council Information
Wheelchair Accessible",Council - 07 3403 8888,On Street,
Holland Park Library,-27.523358,153.072525,"81 Seville Rd, Holland Park 4121","Closed on public holidays
Monday and Sunday: Closed
Tuesday, Thursday and Friday: 10am - 5pm
Wednesday: 1pm - 8pm
Saturday: 9am - 1pm
","Books, magazines, newspapers, eBooks and digital resources
CDs, CD-ROMs, DVDs
Information and Reference Services
Internet Access and W-Fi Access
Photocopier
Community and Council Information
Wheelchair Accessible
Community Meeting Room Available
Arabic collection",Council - 07 3403 8888,Off Street,"The Holland Park Library meeting room is available for use at the following times.
Tuesday:10am-4.45pm;  Wednesday: 1pm-7.45pm; Thursday and Friday: 10am-4.45pm; Saturday:  9am-12.45pm
Free Wi-Fi
Lectern
Electronic Whiteboard
Data Projector
Public Access PC connected to Data Projector
Laptop Connectivity to Data Projector (laptop not provided)
Macbook connectivity (mini display port to vga adaptor cable)
iPad connectivity (iPad to vga adaptor cable)
TV/DVD player, CD player
Wireless Microphones
Wheelchair Accessibility
Wheelchair Accessible toilets
Kitchenette with chilled or boiling water on tap, sink, fPark and dishwasher (glasses, cups, saucers and teaspoons provided)
Tables (lockable wheels)
Chairs
"
Inala Library,-27.597627,152.974295,"Inala Civic Centre, Corsair Ave, Inala 4077","Closed on public holidays
Monday, Tuesday, Wednesday and Friday: 9am - 6pm
Thursday: 9am - 7pm
Saturday: 9am - 2pm
Sunday: Closed
","Books, magazines, newspapers, eBooks and digital resources
CDs, CD-ROMs, DVDs
Information and Reference Services
Internet Access and W-Fi Access
Photocopier
Community and Council Information
Wheelchair Accessible
Vietnamese and Spanish collection",Council - 07 3403 8888,Shopping Centre,
Indooroopilly Library,-27.498831,152.972278,"Indooroopilly Shopping Centre, Level 4, 322 Moggill Rd, Indooroopilly 4068","Closed on public holidays
Monday, Wednesday and Friday: 9am - 6pm
Tuesday and Thursday: 9am - 8pm
Saturday: 9am - 3pm
Sunday: 10am - 4pm
","Books, magazines, newspapers, eBooks and digital resources
CDs, CD-ROMs, DVDs
Information and Reference Services
Internet Access and W-Fi Access
Photocopier
Community and Council Information
Wheelchair Accessible
Community Meeting Room available
German and Chinese collections",Council - 07 3403 8888,Shopping Centre,"The Indooroopilly Library Meeting Room is available for use 24 hrs a day, 7 days a week.
Meeting Room 1: 50 people
Free Wi-Fi
Lectern
Electronic Whiteboard
Data Projector
Public Access PC connected to Data Projector
Laptop Connectivity to Data Projecter (laptop not provided)
Macbook connectivity (mini display port to vga adaptor cable)
iPad connectivity (iPad to vga adaptor cable)
TV/DVD player, CD player
Wireless Microphones
Wheelchair Accessibility
Wheelchair Accessible toilets
Kitchenette with chilled or boiling water on tap, sink, fridge and dishwasher (glasses, cups, saucers and teaspoons provided)
Tables (lockable wheels)
Chairs"
Kenmore Library,-27.506073,152.939041,"Kenmore Village, 9 Brookfield Road, Kenmore 4069","Closed on public holidays
Monday, Tuesday, Wednesday and Friday: 9am - 6pm
Thursday: 9am - 8pm
Saturday: 9am - 3pm
Sunday: Closed
","Books, magazines, newspapers, eBooks and digital resources
CDs, CD-ROMs, DVDs
Information and Reference Services
Internet Access and W-Fi Access
Photocopier
Community and Council Information
Wheelchair Accessible
Community Meeting Rooms available",Council - 07 3403 8888,Shopping Centre," The Kenmore Library meeting rooms are available for use from 7am-10pm 7 days per week.
Meeting Room 1: 75 people; Meeting Room 2: 25 people;  Meeting Room 3: 100 people; (The rooms can also be combined)
Free Wi-Fi
Lectern
Electronic Whiteboard
Data Projector
Public Access PC connected to Data Projector
Laptop Connectivity to Data Projecter (laptop not provided)
Macbook connectivity (mini display port to vga adaptor cable)
iPad connectivity (iPad to vga adaptor cable)
TV/DVD player, CD player
Wireless Microphones
Wheelchair Accessibility
Wheelchair Accessible toilets
Kitchenette with chilled or boiling water on tap, sink, fridge and dishwasher (glasses, cups, saucers and teaspoons provided)
Tables (lockable wheels)
Chairs
"
Mitchelton Library,-27.417233,152.978229,"37 Heliopolis Pde, Mitchelton 4053","Closed on public holidays
Monday and Sunday: Closed
Tuesday, Wednesday and Friday: 10am - 5pm
Thursday: 12 noon - 7pm
Saturday: 9am - 1pm
","Books, magazines, newspapers, eBooks and digital resources
CDs, CD-ROMs, DVDs
Information and Reference Services
Internet Access and W-Fi Access
Photocopier
Community and Council Information
Wheelchair Accessible
Community Meeting Room available",Council - 07 3403 8888,,"The Mitchelton Library meeting rooms is available for use 24 hours per day.
Meeting Room 1: 50 people
Free Wi-Fi
Lectern
Electronic Whiteboard
Data Projector
Public Access PC connected to Data Projector
Laptop Connectivity to Data Projecter (laptop not provided)
Macbook connectivity (mini display port to vga adaptor cable)
iPad connectivity (iPad to vga adaptor cable)
TV/DVD player, CD player
Wireless Microphones
Wheelchair Accessibility
Wheelchair Accessible toilets
Kitchenette with chilled or boiling water on tap, sink, fridge and dishwasher (glasses, cups, saucers and teaspoons provided)
Tables (lockable wheels)
Chairs"
Mt Coot-tha Library,-27.475265,152.97627,"Brisbane Botanic Gardens, Mt Coot-tha Rd, Toowong 4066","Closed on public holidays
Monday, Friday, Saturday and Sunday: 10am - 3pm
Tuesday to Thursday: 10am - 4pm
","Special Collections
      -The collection at the Mt Coot-tha Library specialises in botany, horticulture/gardening and landscape design. Other subject areas included in the collection are astronomy, botanic illustration, conservation, floral art, herbal medicine and natural history. It contains an excellent reference collection with world class literature on the subjects collected, particularly in botany. The collection is valuable to researchers in this field.
Books, magazines, newspapers, eBooks and digital resources
Information and Reference Services
Internet Access and W-Fi Access
Photocopier
Community and Council Information
Wheelchair Accessible",Council - 07 3403 8888,Carpark available,
Mt Gravatt Library,-27.538261,153.080403,"8 Creek Rd, Mt Gravatt 4122","Closed on public holidays
Monday and Sunday: Closed
Tuesday, Wednesday and Friday: 9am - 5pm
Thursday: 9am - 7pm
Saturday: 9am - 12 noon
","Books, magazines, newspapers, eBooks and digital resources
CDs, CD-ROMs, DVDs
Information and Reference Services
Internet Access and W-Fi Access
Photocopier
Community and Council Information
Wheelchair Accessible",Council - 07 3403 8888,Off Street Parking  ,
Mt Ommaney Library,-27.549505,152.939147,"Mt Ommaney Shopping Centre, 171 Dandenong Rd, Mt Ommaney 4074","Closed on public holidays
Monday and Sunday: Closed
Tuesday, Wednesday and Friday: 9am - 6pm
Thursday: 9am - 8pm
Saturday: 9am - 3pm
","Books, magazines, newspapers, eBooks and digital resources
CDs, CD-ROMs, DVDs
Information and Reference Services
Internet Access and W-Fi Access
Photocopier
Community and Council Information
Wheelchair Accessible
Community Meeting Room available
Chinese and Vietnamese Collections",Council - 07 3403 8888,Shopping Centre,"The Mt Ommaney Library meeting room is available for use 24 hours per day.
Meeting Room 1: 40 people
Free Wi-Fi
Lectern
Electronic Whiteboard
Data Projector
Public Access PC connected to Data Projector
Laptop Connectivity to Data Projecter (laptop not provided)
Macbook connectivity (mini display port to vga adaptor cable)
iPad connectivity (iPad to vga adaptor cable)
TV/DVD player, CD player
Wireless Microphones
Wheelchair Accessibility
Wheelchair Accessible toilets
Kitchenette with chilled or boiling water on tap, sink, fridge and dishwasher (glasses, cups, saucers and teaspoons provided)
Tables (lockable wheels)
Chairs"
New Farm Library,-27.466767,153.049853,"135 Sydney St, New Farm 4005","Closed on public holidays
Monday and Sunday: Closed
Tuesday and Wednesday: 10am - 6pm
Thursday: 12 noon - 8pm
Friday: 10am - 5pm
Saturday: 10am - 2pm
","Books, magazines, newspapers, eBooks and digital resources
CDs, CD-ROMs, DVDs
Information and Reference Services
Internet Access and W-Fi Access
Photocopier
Community and Council Information
Wheelchair Accessible
Community Meeting Room available
Chinese and Italian Collections
Gay and Lesbian Collection",Council - 07 3403 8888,Off Street,"The New Farm Library meeting room is available for use 24 hours per day.
Meeting Room 1: 40 people
Free Wi-Fi
Lectern
Electronic Whiteboard
Data Projector
Public Access PC connected to Data Projector
Laptop Connectivity to Data Projecter (laptop not provided)
Macbook connectivity (mini display port to vga adaptor cable)
iPad connectivity (iPad to vga adaptor cable)
TV/DVD player, CD player
Wireless Microphones
Wheelchair Accessibility
Wheelchair Accessible toilets
Kitchenette with chilled or boiling water on tap, sink, fridge and dishwasher (glasses, cups, saucers and teaspoons provided)
Tables (lockable wheels)
Chairs"
Nundah Library,-27.400956,153.058022,"1 Bage St (via Primrose Lane), Nundah 4012","Closed on public holidays
Monday and Sunday: Closed
Tuesday: 10am - 6pm
Wednesday: 1pm - 7pm
Thursday and Friday: 10am - 5pm
Saturday: 9am - 1pm
","Books, magazines, newspapers, eBooks and digital resources
CDs, CD-ROMs, DVDs
Information and Reference Services
Internet Access and W-Fi Access
Photocopier
Community and Council Information
Wheelchair Accessible",Council - 07 3403 8888,Off Street,
Sandgate Library,-27.320864,153.069805,"Sandgate Town Hall, Seymour St, Sandgate 4017","Closed on public holidays
Monday and Sunday: Closed
Tuesday: 10am - 5pm
Wednesday and Thursday: 10am - 6pm
Friday: 12 noon - 5pm
Saturday: 9am - 1pm
","Books, magazines, newspapers, eBooks and digital resources
CDs, CD-ROMs, DVDs
Information and Reference Services
Internet Access and W-Fi Access
Photocopier
Community and Council Information
Wheelchair Accessible",Council - 07 3403 8888,On Street,
Stones Corner Library,-27.498051,153.043819,"280 Logan Rd, Stones Corner 4120","Closed on public holidays
Monday, Tuesday and Sunday: Closed
Wednesday to Friday: 9am - 5pm
Saturday: 9am - 2pm
","Books, magazines, newspapers, eBooks and digital resources
CDs, CD-ROMs, DVDs
Information and Reference Services
Internet Access and W-Fi Access
Photocopier
Community and Council Information
Wheelchair Accessible
Arabic Collection
After hours chute,Disabled toilet,Wheelchair accessible,Wi-fi,Word processing,Xbox",Council - 07 3403 8888,Off Street,
Sunnybank Hills Library,-27.610938,153.055362,"Sunnybank Hills Shoppingtown, Cnr Compton & Calam Rds, Sunnybank Hills 4109","Closed on public holidays
Monday to Wednesday and Friday: 9am - 6pm
Thursday: 9am - 8pm
Saturday: 9am - 3pm
Sunday: Closed
","Books, magazines, newspapers, eBooks and digital resources
CDs, CD-ROMs, DVDs
Information and Reference Services
Internet Access and W-Fi Access
Photocopier
Community and Council Information
Wheelchair Accessible
Community Meeting Room available
Arabic, Chinese and Korean Collections",Council - 07 3403 8888,Shopping Centre,"The Sunnybank Hills Library meeting room is available for use at the following times.
Monday-Friday: 8am-9pm; Saturday: 8am-5pm: Sunday: 8am-6pm
Meeting Room 1: 50 people
Free Wi-Fi
Lectern
Electronic Whiteboard
Data Projector
Public Access PC connected to Data Projector
Laptop Connectivity to Data Projector (laptop not provided)
Macbook connectivity (mini display port to vga adaptor cable)
iPad connectivity (iPad to vga adaptor cable)
TV/DVD player, CD player
Wireless Microphones
Wheelchair Accessibility
Wheelchair Accessible toilets
Kitchenette with chilled or boiling water on tap, sink, fridge and dishwasher (glasses, cups, saucers and teaspoons provided)
Tables (lockable wheels)
Chairs


"
Toowong Library,-27.484803,152.992512,"Toowong Village Shopping Centre, 9 Sherwood Rd, Toowong 4066","Closed on public holidays
Monday to Wednesday and Friday: 9am - 5.30pm
Thursday: 9am - 8pm
Saturday: 9am - 3pm
Sunday: Closed
","Books, magazines, newspapers, eBooks and digital resources
CDs, CD-ROMs, DVDs
Information and Reference Services
Internet Access and W-Fi Access
Photocopier
Community and Council Information
Wheelchair Accessible
Community Meeting Room available",Council - 07 3403 8888,Shopping Centre,"The Toowong Library meeting room is available for use at the following times:
Monday-Friday: 8am-8.30pm; Saturday: 8am-4.30pm; Sunday: 9am-5.30pm
Free Wi-Fi
Lectern
Electronic Whiteboard
Data Projector
Public Access PC connected to Data Projector
Laptop Connectivity to Data Projector (laptop not provided)
Macbook connectivity (mini display port to vga adaptor cable)
iPad connectivity (iPad to vga adaptor cable)
TV/DVD player, CD player
Wireless Microphones
Wheelchair Accessibility
Wheelchair Accessible toilets
Kitchenette with chilled or boiling water on tap, sink, fridge and dishwasher (glasses, cups, saucers and teaspoons provided)
Tables (lockable wheels)
Chairs



"
West End Library,-27.482328,153.012125,"178-180 Boundary St, West End 4101","Closed on public holidays
Monday, Tuesday and Sunday: Closed
Wednesday and Friday: 10am - 5pm
Thursday: 10am - 7pm
Saturday: 9am - 1pm
","Books, magazines, newspapers, eBooks and digital resources
CDs, CD-ROMs, DVDs
Information and Reference Services
Internet Access and W-Fi Access
Photocopier
Community and Council Information
Wheelchair Accessible
Greek and Vietnamese collections available",Council - 07 3403 8888,Limited off street. On Street,
Wynnum Library,-27.44444,153.171876,"145 Florence St, Wynnum QLD 4178","Closed on public holidays
Monday to Wednesday and Friday: 9am - 6pm
Thursday: 9am - 8pm
Saturday: 9am - 2pm
","Books, magazines, newspapers, eBooks and digital resources
CDs, CD-ROMs, DVDs
Information and Reference Services
Internet Access and W-Fi Access
Photocopier
Community and Council Information
Wheelchair Accessible
Community Meeting room available
The South Moreton Bay Bicentennial Historical Collection",Council - 07 3403 8888,Shopping Centre. On Street,Three meetings rooms available 24 hours a day (bookings required). Each meeting room is suitable for 50 people: contains a kitchenette and full audio-visual facilities. These three rooms can be opened into one large meeting room suitable for groups of up to 200 people.
Zillmere Library,-27.359686,153.040633,"Cnr Jennings St & Zillmere Rd, Zillmere 4034","Closed on public holidays
Monday and Sunday: Closed
Tuesday and Thursday: 10am - 6pm
Wednesday: 12 noon - 5pm
Friday: 10am -5pm
Saturday: 9am - 1pm
","Books, magazines, newspapers, eBooks and digital resources
CDs, CD-ROMs, DVDs
Information and Reference Services
Internet Access and W-Fi Access
Photocopier
Community and Council Information
Wheelchair Accessible",Council - 07 3403 8888,On Street,
